{
    "sweeps": [
        {
            "name": "Planet Nine",
            "mass": 2.0648237500000003e-05,
            "semi_major_axis": 357.4,
            "inclination": 0.29365164664804594,
            "eccentricity": 0.3,
            "argument_of_perihelion": 2.632392844320447,
            "longitude_of_ascending_node": 1.5638150097869192,
            "mean_anomaly": 0
        },
        {
            "name": "Planet Nine",
            "mass": 1.5917914e-05,
            "semi_major_axis": 392.66249999999997,
            "inclination": 0.22427480888127133,
            "eccentricity": 0.22499999999999998,
            "argument_of_perihelion": 2.1502456384570134,
            "longitude_of_ascending_node": 1.921607506445757,
            "mean_anomaly": 0
        },
        {
            "name": "Planet Nine",
            "mass": 2.6955335500000003e-05,
            "semi_major_axis": 463.1875,
            "inclination": 0.3167772592369708,
            "eccentricity": 0.275,
            "argument_of_perihelion": 2.899864552188578,
            "longitude_of_ascending_node": 1.4206980111233842,
            "mean_anomaly": 0
        },
        {
            "name": "Planet Nine",
            "mass": 1.7494688500000002e-05,
            "semi_major_axis": 568.975,
            "inclination": 0.17802358370342158,
            "eccentricity": 0.19999999999999998,
            "argument_of_perihelion": 3.014838116663704,
            "longitude_of_ascending_node": 1.4922565104551517,
            "mean_anomaly": 0
        },
        {
            "name": "Planet Nine",
            "mass": 2.3801786500000003e-05,
            "semi_major_axis": 604.2375,
            "inclination": 0.3399028718258957,
            "eccentricity": 0.375,
            "argument_of_perihelion": 2.4083362015956746,
            "longitude_of_ascending_node": 1.8500490071139895,
            "mean_anomaly": 0
        },
        {
            "name": "Planet Nine",
            "mass": 1.9071463e-05,
            "semi_major_axis": 498.45,
            "inclination": 0.20114919629234645,
            "eccentricity": 0.35,
            "argument_of_perihelion": 2.4270984910546143,
            "longitude_of_ascending_node": 1.7069320084504542,
            "mean_anomaly": 0
        },
        {
            "name": "Planet Nine",
            "mass": 2.2225012000000004e-05,
            "semi_major_axis": 427.92499999999995,
            "inclination": 0.27052603405912107,
            "eccentricity": 0.325,
            "argument_of_perihelion": 2.6042494101320384,
            "longitude_of_ascending_node": 1.7784905077822217,
            "mean_anomaly": 0
        },
        {
            "name": "Planet Nine",
            "mass": 2.5378561000000005e-05,
            "semi_major_axis": 533.7125,
            "inclination": 0.2474004214701962,
            "eccentricity": 0.25,
            "argument_of_perihelion": 2.8095437633978713,
            "longitude_of_ascending_node": 1.6353735091186867,
            "mean_anomaly": 0
        }
    ],
    "bodies": [
        {
            "name": "TNO-9057",
            "mass": 0,
            "semi_major_axis": 459.71665852467027,
            "eccentricity": 0.8884904738641916,
            "inclination": 0.38611253139503277,
            "longitude_of_ascending_node": 2.234788656186565,
            "argument_of_perihelion": 1.743843758868268,
            "mean_anomaly": 0.2163993464479905
        },
        {
            "name": "TNO-9058",
            "mass": 0,
            "semi_major_axis": 459.75085490962385,
            "eccentricity": 0.8885002442598926,
            "inclination": 0.3861551627885842,
            "longitude_of_ascending_node": 4.151068125393651,
            "argument_of_perihelion": 3.404914026555232,
            "mean_anomaly": 1.2008801666397917
        },
        {
            "name": "TNO-9059",
            "mass": 0,
            "semi_major_axis": 459.78505129457744,
            "eccentricity": 0.8885100146555935,
            "inclination": 0.38619779418213557,
            "longitude_of_ascending_node": 1.5838051301100766,
            "argument_of_perihelion": 5.746088363465828,
            "mean_anomaly": 0.0637951519643842
        },
        {
            "name": "TNO-9060",
            "mass": 0,
            "semi_major_axis": 459.81924767953103,
            "eccentricity": 0.8885197850512946,
            "inclination": 0.386240425575687,
            "longitude_of_ascending_node": 4.360177927898287,
            "argument_of_perihelion": 3.237317709323211,
            "mean_anomaly": 5.256718366146367
        },
        {
            "name": "TNO-9061",
            "mass": 0,
            "semi_major_axis": 459.8534440644846,
            "eccentricity": 0.8885295554469956,
            "inclination": 0.38628305696923837,
            "longitude_of_ascending_node": 0.2879402270034106,
            "argument_of_perihelion": 5.356884269683038,
            "mean_anomaly": 2.097203749126097
        },
        {
            "name": "TNO-9062",
            "mass": 0,
            "semi_major_axis": 459.8876404494382,
            "eccentricity": 0.8885393258426967,
            "inclination": 0.3863256883627898,
            "longitude_of_ascending_node": 1.8632759574682725,
            "argument_of_perihelion": 5.899495286919195,
            "mean_anomaly": 5.421966251283721
        },
        {
            "name": "TNO-9063",
            "mass": 0,
            "semi_major_axis": 459.9218368343918,
            "eccentricity": 0.8885490962383977,
            "inclination": 0.38636831975634117,
            "longitude_of_ascending_node": 3.5414300187115013,
            "argument_of_perihelion": 5.630719723651838,
            "mean_anomaly": 0.8776060802939402
        },
        {
            "name": "TNO-9064",
            "mass": 0,
            "semi_major_axis": 459.9560332193454,
            "eccentricity": 0.8885588666340987,
            "inclination": 0.3864109511498926,
            "longitude_of_ascending_node": 5.79584659772148,
            "argument_of_perihelion": 6.201943320696431,
            "mean_anomaly": 2.2328234388442283
        },
        {
            "name": "TNO-9065",
            "mass": 0,
            "semi_major_axis": 459.990229604299,
            "eccentricity": 0.8885686370297997,
            "inclination": 0.386453582543444,
            "longitude_of_ascending_node": 5.356360207551583,
            "argument_of_perihelion": 0.8286683331145686,
            "mean_anomaly": 1.357900080565006
        },
        {
            "name": "TNO-9066",
            "mass": 0,
            "semi_major_axis": 460.02442598925256,
            "eccentricity": 0.8885784074255008,
            "inclination": 0.3864962139369954,
            "longitude_of_ascending_node": 3.8192373434549953,
            "argument_of_perihelion": 0.5338703714374353,
            "mean_anomaly": 0.23004209866136988
        },
        {
            "name": "TNO-9067",
            "mass": 0,
            "semi_major_axis": 460.05862237420615,
            "eccentricity": 0.8885881778212018,
            "inclination": 0.3865388453305468,
            "longitude_of_ascending_node": 2.950429706350579,
            "argument_of_perihelion": 1.228949320059487,
            "mean_anomaly": 6.065686161046174
        },
        {
            "name": "TNO-9068",
            "mass": 0,
            "semi_major_axis": 460.09281875915974,
            "eccentricity": 0.8885979482169029,
            "inclination": 0.3865814767240982,
            "longitude_of_ascending_node": 5.489056146866233,
            "argument_of_perihelion": 1.3498023129421322,
            "mean_anomaly": 3.3337627817220823
        },
        {
            "name": "TNO-9069",
            "mass": 0,
            "semi_major_axis": 460.12701514411333,
            "eccentricity": 0.8886077186126038,
            "inclination": 0.3866241081176496,
            "longitude_of_ascending_node": 3.9059924407886544,
            "argument_of_perihelion": 6.0495995615860885,
            "mean_anomaly": 4.692996551664617
        },
        {
            "name": "TNO-9070",
            "mass": 0,
            "semi_major_axis": 460.1612115290669,
            "eccentricity": 0.8886174890083048,
            "inclination": 0.386666739511201,
            "longitude_of_ascending_node": 3.3253641219234633,
            "argument_of_perihelion": 3.1537199913481966,
            "mean_anomaly": 3.4740704681549537
        },
        {
            "name": "TNO-9071",
            "mass": 0,
            "semi_major_axis": 460.1954079140205,
            "eccentricity": 0.8886272594040059,
            "inclination": 0.3867093709047524,
            "longitude_of_ascending_node": 6.046854558177897,
            "argument_of_perihelion": 5.864738007966938,
            "mean_anomaly": 1.6103977804175718
        },
        {
            "name": "TNO-9072",
            "mass": 0,
            "semi_major_axis": 460.2296042989741,
            "eccentricity": 0.8886370297997069,
            "inclination": 0.3867520022983038,
            "longitude_of_ascending_node": 2.3471223593391053,
            "argument_of_perihelion": 0.45990762760373927,
            "mean_anomaly": 3.5706646849579573
        },
        {
            "name": "TNO-9073",
            "mass": 0,
            "semi_major_axis": 460.2638006839277,
            "eccentricity": 0.888646800195408,
            "inclination": 0.3867946336918552,
            "longitude_of_ascending_node": 4.044516614490706,
            "argument_of_perihelion": 1.0148726630111546,
            "mean_anomaly": 2.772088680758409
        }
    ]
}